FLOCK 4BE-17            
1 60492U 24149AA  26189.53207264  .00011641  00000+0  28961-3 0  9997
2 60492  97.3766 273.0777 0003924 163.3238 196.8138 15.40431005105542
FLOCK 4BE-22            
1 60494U 24149AC  26189.49433042  .00012258  00000+0  29098-3 0  9996
2 60494  97.3726 273.2656 0004237 173.2037 186.9268 15.41839803105580
FLOCK 4BE-34            
1 60495U 24149AD  26189.18723978  .00010259  00000+0  24425-3 0  9991
2 60495  97.3776 273.7910 0004170 181.2042 178.9195 15.41798409105569
FLOCK 4BE-32            
1 60497U 24149AF  26189.20640609  .00012680  00000+0  29041-3 0  9994
2 60497  97.3711 273.3706 0004334 179.3861 180.7392 15.42908017105578
FLOCK 4BE-11            
1 60501U 24149AK  26189.51411208  .00013655  00000+0  30425-3 0  9996
2 60501  97.3691 273.9320 0004417 177.6151 182.5119 15.43709934105647
FLOCK 4BE-24            
1 60505U 24149AP  26188.72095949  .00014674  00000+0  32481-3 0  9998
2 60505  97.3707 273.3935 0004417 193.1566 166.9568 15.43889466105539
FLOCK 4BE-29            
1 60509U 24149AT  26189.04180615  .00027945  00000+0  59268-3 0  9990
2 60509  97.3802 275.2387 0002945 194.5091 165.6074 15.45027166105635
FLOCK 4BE-2             
1 60511U 24149AV  26189.50318431  .00050648  00000+0  74588-3 0  9991
2 60511  97.3822 277.4434 0005055 190.8164 169.2983 15.55260311105813
FLOCK 4BE-13            
1 60512U 24149AW  26189.50341242  .00010599  00000+0  24657-3 0  9991
2 60512  97.3713 274.1441 0004567 175.8382 184.2904 15.42483542105658
FLOCK 4BE-27            
1 60513U 24149AX  26189.19034498  .00006119  00000+0  18358-3 0  9993
2 60513  97.3818 271.0558 0003228 207.3134 152.7940 15.34829838105360
FLOCK 4BE-9             
1 60514U 24149AY  26188.73821531  .00011145  00000+0  26835-3 0  9999
2 60514  97.3784 273.2170 0002980 192.5638 167.5535 15.41438050105482
FLOCK 4BE-6             
1 60516U 24149BA  26189.04342862  .00009067  00000+0  22802-3 0  9991
2 60516  97.3782 272.8437 0003624 195.3162 164.7975 15.40174807105485
FLOCK 4BE-14            
1 60517U 24149BB  26188.74779167  .00011287  00000+0  26952-3 0  9997
2 60517  97.3687 272.7009 0004586 201.2982 158.8075 15.41681927105492
FLOCK 4BE-1             
1 60518U 24149BC  26189.19597178  .00011573  00000+0  26151-3 0  9997
2 60518  97.3771 274.5069 0004342 199.2903 160.8181 15.43334861105611
FLOCK 4BE-28            
1 60519U 24149BD  26187.23632372  .00025518  00000+0  52926-3 0  9990
2 60519  97.3771 273.3050 0004188 219.3554 140.7391 15.45698118105387
FLOCK 4BE-5             
1 60559U 24149CV  26188.74731463  .00010691  00000+0  26219-3 0  9994
2 60559  97.3834 272.9528 0003307 194.5389 165.5762 15.40891427105445
